{
    "type": "FeatureCollection",
    "features": [
        {
            "type": "Feature",
            "properties": {
                "source": "Detection Bounding Box Fallback",
                "scene": "2018_09_26.tif",
                "risk_level": "HIGH",
                "spill_area_km2": 79.7762,
                "mean_confidence": 0.759473443031311
            },
            "geometry": {
                "type": "Polygon",
                "coordinates": [
                    [
                        [
                            -89.42512818401086,
                            28.779582316996514
                        ],
                        [
                            -88.9134300852514,
                            28.779582316996514
                        ],
                        [
                            -88.9134300852514,
                            29.00186811311585
                        ],
                        [
                            -89.42512818401086,
                            29.00186811311585
                        ],
                        [
                            -89.42512818401086,
                            28.779582316996514
                        ]
                    ]
                ]
            }
        }
    ]
}